{"type":"FeatureCollection","source":"통계청(KOSTAT) 2013 시군구 경계 — github.com/southkorea/southkorea-maps (KOSTAT: free to share or remix). 0.0002° Douglas-Peucker로 줄였다.","features":[{"type":"Feature","properties":{"code":"25050","name":"대덕구"},"geometry":{"type":"Polygon","coordinates":[[[127.49135,36.42977],[127.48841,36.43],[127.48617,36.43056],[127.48394,36.42757],[127.48333,36.42637],[127.48345,36.42491],[127.47994,36.41934],[127.47495,36.41281],[127.47048,36.40743],[127.46941,36.40709],[127.46859,36.40548],[127.4662,36.40395],[127.46524,36.4037],[127.46326,36.40168],[127.45951,36.40004],[127.45827,36.39828],[127.45819,36.39749],[127.45742,36.3962],[127.45765,36.39519],[127.45724,36.39426],[127.45634,36.39293],[127.4558,36.3927],[127.45584,36.39133],[127.45664,36.3897],[127.45632,36.38884],[127.4564,36.38762],[127.45608,36.38713],[127.45736,36.38577],[127.45701,36.38543],[127.45682,36.38405],[127.45526,36.38201],[127.45526,36.38064],[127.45344,36.37798],[127.45381,36.37645],[127.45506,36.37459],[127.45643,36.37404],[127.45654,36.37294],[127.45797,36.37163],[127.45821,36.37063],[127.45937,36.3694],[127.46061,36.36626],[127.46178,36.36609],[127.46238,36.36558],[127.46241,36.36495],[127.46305,36.36453],[127.46339,36.36324],[127.46442,36.36143],[127.46487,36.36118],[127.46586,36.35837],[127.46803,36.35755],[127.4682,36.35511],[127.4669,36.3522],[127.46683,36.35016],[127.46726,36.34861],[127.46604,36.34782],[127.46529,36.34777],[127.46447,36.34844],[127.46094,36.34908],[127.46068,36.35005],[127.45819,36.35],[127.45595,36.35036],[127.45664,36.35154],[127.45126,36.35113],[127.45084,36.35043],[127.44912,36.35106],[127.44877,36.35043],[127.44803,36.35068],[127.44764,36.34928],[127.44819,36.34943],[127.44729,36.34785],[127.44353,36.34943],[127.44361,36.35063],[127.44179,36.35213],[127.44211,36.35255],[127.44203,36.35337],[127.44117,36.35416],[127.4414,36.35564],[127.44083,36.35679],[127.4378,36.35785],[127.43676,36.35752],[127.43468,36.35612],[127.43281,36.35611],[127.43289,36.35389],[127.43122,36.35383],[127.43124,36.35266],[127.42964,36.35252],[127.43005,36.34965],[127.42938,36.34959],[127.42946,36.34905],[127.42812,36.34782],[127.427,36.34586],[127.42602,36.34549],[127.42362,36.34565],[127.42171,36.34536],[127.42045,36.34328],[127.42283,36.34152],[127.41974,36.34174],[127.4149,36.34076],[127.41381,36.34292],[127.4119,36.34486],[127.40967,36.34596],[127.40503,36.34715],[127.40538,36.34932],[127.40528,36.35335],[127.40389,36.35678],[127.39962,36.36033],[127.39822,36.36186],[127.39694,36.36187],[127.39678,36.36904],[127.39712,36.36974],[127.39954,36.37107],[127.40808,36.3736],[127.41131,36.37555],[127.4126,36.37736],[127.41331,36.37946],[127.41284,36.38694],[127.4135,36.39216],[127.41566,36.39681],[127.416,36.39844],[127.41624,36.40469],[127.41775,36.40737],[127.41712,36.40746],[127.41819,36.40896],[127.42053,36.41107],[127.42065,36.41363],[127.41898,36.41699],[127.4174,36.41848],[127.41588,36.41931],[127.41441,36.41949],[127.41119,36.42311],[127.39889,36.43272],[127.39365,36.4383],[127.39323,36.43952],[127.39441,36.44219],[127.39284,36.44368],[127.39403,36.44635],[127.39457,36.44688],[127.39562,36.44764],[127.39948,36.4481],[127.40015,36.4486],[127.40055,36.44821],[127.40227,36.45],[127.40303,36.45021],[127.40404,36.44962],[127.40467,36.44982],[127.40495,36.45161],[127.40475,36.45277],[127.40789,36.45201],[127.41513,36.45183],[127.4212,36.45233],[127.42678,36.4535],[127.42678,36.45222],[127.42816,36.45257],[127.42878,36.45241],[127.42839,36.45399],[127.43387,36.45437],[127.43839,36.45372],[127.44233,36.45056],[127.44426,36.44813],[127.4455,36.44755],[127.45075,36.4467],[127.45534,36.44717],[127.45723,36.44784],[127.46265,36.45071],[127.46609,36.45364],[127.46636,36.45447],[127.46591,36.4575],[127.46616,36.46086],[127.46757,36.46494],[127.47047,36.46897],[127.47384,36.47174],[127.48133,36.47454],[127.4853,36.47495],[127.48627,36.47469],[127.48666,36.47235],[127.48142,36.45722],[127.48148,36.45491],[127.48445,36.45305],[127.48931,36.45174],[127.49487,36.4516],[127.50106,36.45276],[127.50342,36.45241],[127.5048,36.45106],[127.50518,36.45012],[127.50507,36.44712],[127.50354,36.44468],[127.50231,36.44359],[127.50002,36.44246],[127.49792,36.44085],[127.49436,36.43751],[127.49157,36.43144],[127.49135,36.42977]]]}},{"type":"Feature","properties":{"code":"25040","name":"유성구"},"geometry":{"type":"Polygon","coordinates":[[[127.40475,36.45277],[127.40495,36.45161],[127.40467,36.44982],[127.40404,36.44962],[127.40303,36.45021],[127.40227,36.45],[127.40055,36.44821],[127.40015,36.4486],[127.39948,36.4481],[127.39562,36.44764],[127.39403,36.44635],[127.39284,36.44368],[127.39441,36.44219],[127.39323,36.43952],[127.39365,36.4383],[127.39889,36.43272],[127.41119,36.42311],[127.41441,36.41949],[127.41588,36.41931],[127.4174,36.41848],[127.41898,36.41699],[127.42065,36.41363],[127.42053,36.41107],[127.41819,36.40896],[127.41712,36.40746],[127.41775,36.40737],[127.41624,36.40469],[127.416,36.39844],[127.41566,36.39681],[127.4135,36.39216],[127.41284,36.38694],[127.41331,36.37946],[127.4126,36.37736],[127.41131,36.37555],[127.4074,36.37324],[127.39954,36.37107],[127.39712,36.36974],[127.39195,36.3706],[127.38497,36.36986],[127.38255,36.36993],[127.37687,36.36761],[127.37454,36.36645],[127.37066,36.36357],[127.36568,36.36098],[127.35894,36.35601],[127.35161,36.34896],[127.3512,36.34691],[127.35514,36.33425],[127.35597,36.33001],[127.35576,36.3292],[127.34033,36.32925],[127.34029,36.32725],[127.33813,36.32724],[127.3389,36.31896],[127.3397,36.31696],[127.33998,36.31492],[127.34194,36.31489],[127.34141,36.31275],[127.34194,36.31159],[127.3413,36.31128],[127.341,36.31026],[127.33964,36.31058],[127.33962,36.30984],[127.33898,36.30898],[127.33667,36.3076],[127.33612,36.30677],[127.33552,36.30652],[127.33529,36.30497],[127.33494,36.30497],[127.33491,36.29862],[127.3318,36.2985],[127.32687,36.2969],[127.32423,36.29422],[127.3222,36.28929],[127.32207,36.28539],[127.32179,36.28465],[127.32073,36.28361],[127.31923,36.2829],[127.31648,36.28285],[127.3156,36.27988],[127.31341,36.27942],[127.31305,36.27905],[127.3126,36.27517],[127.31162,36.27382],[127.30965,36.27267],[127.30923,36.27141],[127.30938,36.2696],[127.30494,36.26759],[127.3026,36.26706],[127.30175,36.26563],[127.30018,36.26571],[127.29928,36.26493],[127.29782,36.2645],[127.29536,36.26142],[127.29456,36.26102],[127.29389,36.26124],[127.29359,36.26239],[127.29269,36.2628],[127.28943,36.26278],[127.28633,36.26192],[127.28511,36.26197],[127.28312,36.26246],[127.28105,36.2637],[127.27818,36.26469],[127.27188,36.26807],[127.26856,36.27118],[127.2641,36.27284],[127.26237,36.27296],[127.25836,36.27506],[127.25416,36.27928],[127.25157,36.28048],[127.25021,36.28546],[127.24973,36.28672],[127.24894,36.2875],[127.24974,36.2887],[127.25006,36.28986],[127.25166,36.29051],[127.25316,36.29249],[127.25462,36.29334],[127.25598,36.29359],[127.26027,36.29288],[127.26116,36.29311],[127.26154,36.29391],[127.26231,36.29889],[127.26097,36.30086],[127.26057,36.3021],[127.26048,36.30673],[127.2598,36.30959],[127.25961,36.31245],[127.2599,36.31502],[127.26185,36.3171],[127.26249,36.319],[127.26184,36.32427],[127.26545,36.3244],[127.26812,36.32551],[127.26834,36.32636],[127.27012,36.32858],[127.26938,36.33165],[127.26928,36.33581],[127.27173,36.33676],[127.27331,36.33852],[127.27401,36.34054],[127.27478,36.34119],[127.27764,36.34179],[127.27845,36.3432],[127.27941,36.34412],[127.28001,36.34582],[127.27821,36.34808],[127.27437,36.3513],[127.27434,36.35245],[127.27326,36.35437],[127.27295,36.35803],[127.275,36.36004],[127.27766,36.36096],[127.27964,36.36227],[127.27925,36.36544],[127.28141,36.36639],[127.28147,36.36829],[127.2831,36.37188],[127.28267,36.37289],[127.28244,36.37554],[127.281,36.37674],[127.2809,36.37938],[127.28129,36.38122],[127.28013,36.38412],[127.28099,36.38536],[127.28137,36.38822],[127.28073,36.39436],[127.28102,36.39596],[127.28279,36.39986],[127.28307,36.40207],[127.28279,36.40378],[127.28398,36.40621],[127.28371,36.40759],[127.28435,36.40867],[127.28441,36.41159],[127.28552,36.41202],[127.28828,36.41224],[127.29112,36.41295],[127.29139,36.41332],[127.29137,36.41643],[127.29352,36.41567],[127.29534,36.41615],[127.29635,36.41927],[127.29812,36.41982],[127.30041,36.42021],[127.30144,36.42],[127.30281,36.41903],[127.30358,36.41905],[127.30487,36.42174],[127.30616,36.42216],[127.30738,36.42144],[127.31273,36.42186],[127.31434,36.42037],[127.31623,36.4199],[127.31708,36.41932],[127.31879,36.41719],[127.31917,36.41709],[127.32145,36.41805],[127.32204,36.41927],[127.32362,36.42069],[127.32436,36.42066],[127.32535,36.41957],[127.32651,36.41917],[127.32886,36.41898],[127.33114,36.4202],[127.33222,36.42135],[127.3332,36.42178],[127.33428,36.42266],[127.33452,36.42344],[127.33938,36.42543],[127.34089,36.42632],[127.34107,36.42684],[127.34284,36.42805],[127.34232,36.43089],[127.34261,36.43172],[127.34202,36.43305],[127.34368,36.43505],[127.34468,36.43519],[127.34502,36.43699],[127.34682,36.44154],[127.3479,36.44216],[127.34831,36.4428],[127.35031,36.44373],[127.35169,36.44517],[127.35521,36.44498],[127.35653,36.44714],[127.358,36.448],[127.35834,36.44877],[127.35806,36.45107],[127.35981,36.45167],[127.36083,36.45311],[127.35993,36.45436],[127.35997,36.45502],[127.35888,36.45583],[127.35908,36.45775],[127.35981,36.45859],[127.35923,36.45889],[127.359,36.45978],[127.35808,36.46109],[127.35883,36.46178],[127.36061,36.46226],[127.36211,36.46224],[127.36307,36.46619],[127.36246,36.46703],[127.36266,36.46745],[127.3648,36.46773],[127.36575,36.46741],[127.36653,36.46877],[127.36665,36.47221],[127.36445,36.47303],[127.36342,36.47464],[127.36128,36.48247],[127.36141,36.4843],[127.36249,36.48562],[127.36247,36.4873],[127.36345,36.48815],[127.3688,36.48692],[127.37151,36.48667],[127.37346,36.4874],[127.37771,36.49093],[127.38079,36.49499],[127.38329,36.4971],[127.3849,36.49753],[127.38682,36.49722],[127.39009,36.49559],[127.39352,36.49108],[127.39598,36.4902],[127.40307,36.48452],[127.40481,36.48266],[127.40634,36.4804],[127.40644,36.47855],[127.40559,36.47322],[127.40273,36.46725],[127.40256,36.45839],[127.40339,36.45446],[127.40475,36.45277]]]}},{"type":"Feature","properties":{"code":"25030","name":"서구"},"geometry":{"type":"Polygon","coordinates":[[[127.39712,36.36974],[127.39678,36.36904],[127.39694,36.36187],[127.39822,36.36186],[127.39962,36.36033],[127.40389,36.35678],[127.40528,36.35335],[127.40538,36.34855],[127.40503,36.34715],[127.4054,36.34296],[127.40505,36.33974],[127.40408,36.33524],[127.39978,36.33169],[127.40025,36.33131],[127.39353,36.32569],[127.38804,36.31762],[127.38768,36.3155],[127.38856,36.31268],[127.38889,36.30986],[127.38802,36.30756],[127.38425,36.30345],[127.38379,36.30192],[127.38382,36.29997],[127.38517,36.29701],[127.38503,36.29611],[127.38328,36.29299],[127.38051,36.28993],[127.37878,36.29036],[127.37794,36.29007],[127.37555,36.29029],[127.37498,36.28939],[127.37514,36.28816],[127.37379,36.28831],[127.37307,36.28717],[127.37207,36.28696],[127.37206,36.28634],[127.37263,36.28604],[127.37271,36.28547],[127.37222,36.28511],[127.37238,36.28428],[127.37186,36.28318],[127.37215,36.28196],[127.37195,36.2816],[127.37252,36.2805],[127.37136,36.28001],[127.37141,36.27894],[127.37222,36.27825],[127.37241,36.27741],[127.37357,36.27653],[127.37341,36.27338],[127.37491,36.27154],[127.37453,36.26923],[127.37392,36.26774],[127.37314,36.26699],[127.37114,36.26689],[127.37059,36.2663],[127.36989,36.26634],[127.36882,36.26581],[127.36581,36.26682],[127.36547,36.26669],[127.36483,36.26625],[127.3653,36.26565],[127.36497,36.26488],[127.36388,36.26394],[127.3639,36.2625],[127.36244,36.2611],[127.36178,36.25972],[127.36243,36.25913],[127.36254,36.25749],[127.36207,36.25667],[127.36213,36.25582],[127.36261,36.25548],[127.36279,36.25419],[127.36238,36.25233],[127.36163,36.25188],[127.36206,36.25099],[127.36349,36.25063],[127.36378,36.24994],[127.36646,36.24861],[127.3659,36.24796],[127.36654,36.24685],[127.36675,36.2446],[127.36677,36.24229],[127.36643,36.24151],[127.36664,36.24049],[127.366,36.23907],[127.36644,36.23799],[127.36549,36.23739],[127.36621,36.23593],[127.36542,36.23544],[127.36526,36.23407],[127.36476,36.23348],[127.36459,36.23259],[127.3632,36.23167],[127.36427,36.23091],[127.36533,36.22941],[127.36405,36.22737],[127.3643,36.22543],[127.36305,36.22474],[127.36217,36.22384],[127.36243,36.22267],[127.36537,36.22053],[127.36684,36.21702],[127.36636,36.21599],[127.3635,36.21543],[127.36265,36.21555],[127.36188,36.21357],[127.36158,36.21097],[127.35953,36.21041],[127.35942,36.20974],[127.35902,36.20946],[127.35767,36.20993],[127.35701,36.20984],[127.35515,36.20887],[127.35518,36.20792],[127.3542,36.20719],[127.35415,36.20669],[127.35183,36.20533],[127.34897,36.20035],[127.34887,36.19956],[127.34978,36.19916],[127.34977,36.19811],[127.3493,36.19734],[127.34985,36.19555],[127.3496,36.19482],[127.34786,36.19425],[127.34575,36.19432],[127.34604,36.19377],[127.34575,36.19189],[127.34448,36.19116],[127.34401,36.19028],[127.34278,36.18616],[127.34108,36.18657],[127.34009,36.18643],[127.3401,36.18458],[127.33976,36.18328],[127.33827,36.18211],[127.33722,36.18066],[127.33606,36.18031],[127.33355,36.18136],[127.33395,36.18329],[127.3339,36.18522],[127.33352,36.18616],[127.3336,36.18695],[127.33306,36.18762],[127.33374,36.18979],[127.3318,36.19117],[127.33274,36.19178],[127.3331,36.19288],[127.33427,36.19344],[127.33395,36.19584],[127.33565,36.19685],[127.33565,36.19772],[127.33412,36.19852],[127.3329,36.19848],[127.33183,36.19896],[127.33153,36.19993],[127.33025,36.2011],[127.32574,36.20016],[127.32504,36.20106],[127.32484,36.2031],[127.32398,36.20413],[127.32352,36.20535],[127.32274,36.20598],[127.32293,36.20783],[127.32246,36.20888],[127.32345,36.20982],[127.32362,36.21075],[127.32241,36.21159],[127.32182,36.2125],[127.32028,36.21301],[127.3178,36.21795],[127.31649,36.21894],[127.31657,36.21947],[127.31371,36.22019],[127.31221,36.22139],[127.31083,36.22173],[127.30822,36.22383],[127.30686,36.22588],[127.3058,36.22602],[127.30531,36.22572],[127.30496,36.22401],[127.3057,36.22006],[127.3054,36.21889],[127.30308,36.21823],[127.29987,36.21899],[127.29854,36.21899],[127.29805,36.21967],[127.29588,36.22017],[127.29517,36.22256],[127.29476,36.22318],[127.29381,36.22367],[127.29474,36.2241],[127.2953,36.2252],[127.29448,36.22675],[127.29136,36.2285],[127.29092,36.22966],[127.29031,36.22998],[127.28952,36.2312],[127.28568,36.23218],[127.28504,36.2328],[127.28397,36.23275],[127.28391,36.23301],[127.28514,36.2338],[127.28499,36.23555],[127.28522,36.23603],[127.28412,36.23681],[127.28366,36.23826],[127.28434,36.23889],[127.28281,36.24],[127.28211,36.24113],[127.28019,36.24112],[127.28174,36.24178],[127.28314,36.24288],[127.28336,36.24462],[127.28215,36.24624],[127.28277,36.24852],[127.28214,36.24939],[127.28097,36.25019],[127.28246,36.25086],[127.28399,36.251],[127.28402,36.25194],[127.28467,36.25335],[127.28403,36.25456],[127.28628,36.25681],[127.293,36.26],[127.29389,36.26124],[127.29456,36.26102],[127.29536,36.26142],[127.29782,36.2645],[127.29928,36.26493],[127.30018,36.26571],[127.30175,36.26563],[127.3026,36.26706],[127.30494,36.26759],[127.30938,36.2696],[127.30923,36.27141],[127.30965,36.27267],[127.31162,36.27382],[127.3126,36.27517],[127.31305,36.27905],[127.31341,36.27942],[127.3156,36.27988],[127.31648,36.28285],[127.31923,36.2829],[127.32073,36.28361],[127.32179,36.28465],[127.32207,36.28539],[127.3222,36.28929],[127.32423,36.29422],[127.32504,36.29518],[127.32687,36.2969],[127.3318,36.2985],[127.33491,36.29862],[127.33494,36.30497],[127.33529,36.30497],[127.33552,36.30652],[127.33612,36.30677],[127.33667,36.3076],[127.33898,36.30898],[127.33962,36.30984],[127.33964,36.31058],[127.341,36.31026],[127.3413,36.31128],[127.34194,36.31159],[127.34141,36.31275],[127.34194,36.31489],[127.33998,36.31492],[127.3397,36.31696],[127.3389,36.31896],[127.33813,36.32724],[127.34029,36.32725],[127.34033,36.32925],[127.35576,36.3292],[127.35597,36.33001],[127.35514,36.33425],[127.3512,36.34691],[127.35161,36.34896],[127.35894,36.35601],[127.36568,36.36098],[127.37066,36.36357],[127.37454,36.36645],[127.37687,36.36761],[127.38255,36.36993],[127.38497,36.36986],[127.39195,36.3706],[127.39712,36.36974]]]}},{"type":"Feature","properties":{"code":"25020","name":"중구"},"geometry":{"type":"Polygon","coordinates":[[[127.40503,36.34715],[127.40967,36.34596],[127.4119,36.34486],[127.41381,36.34292],[127.41602,36.33854],[127.41816,36.33661],[127.42341,36.33435],[127.42551,36.33175],[127.43117,36.32718],[127.43875,36.31765],[127.44011,36.31556],[127.44157,36.31153],[127.44253,36.30977],[127.44412,36.30836],[127.44699,36.30838],[127.44876,36.30756],[127.45298,36.30198],[127.45798,36.29774],[127.45912,36.29399],[127.4593,36.29159],[127.45996,36.29109],[127.45829,36.28991],[127.45503,36.29039],[127.45077,36.2919],[127.44976,36.29098],[127.44895,36.29104],[127.44936,36.293],[127.4487,36.29392],[127.44698,36.29283],[127.44533,36.29348],[127.44434,36.29294],[127.44366,36.29381],[127.44322,36.29357],[127.44283,36.29236],[127.44101,36.29114],[127.43984,36.28977],[127.43748,36.28981],[127.43479,36.28814],[127.43316,36.28857],[127.43274,36.28715],[127.43292,36.28183],[127.43467,36.28046],[127.43488,36.28],[127.43725,36.2792],[127.43738,36.2784],[127.43427,36.2759],[127.43587,36.27251],[127.43882,36.27188],[127.43907,36.27081],[127.44125,36.26698],[127.44076,36.26511],[127.43177,36.25799],[127.43232,36.25439],[127.42925,36.25165],[127.43566,36.25114],[127.43693,36.25013],[127.43884,36.24999],[127.43691,36.24837],[127.43693,36.24803],[127.43744,36.24703],[127.43963,36.24599],[127.44009,36.2444],[127.44132,36.24268],[127.44248,36.24188],[127.44431,36.24149],[127.44421,36.24021],[127.44465,36.23834],[127.44418,36.23692],[127.44521,36.23553],[127.44424,36.23518],[127.44383,36.23465],[127.44264,36.23476],[127.43968,36.23363],[127.43936,36.23155],[127.43966,36.2311],[127.43978,36.22931],[127.4379,36.22714],[127.43657,36.22638],[127.43626,36.22492],[127.43525,36.22449],[127.43318,36.22436],[127.42975,36.22623],[127.42677,36.22598],[127.426,36.2248],[127.4259,36.22353],[127.42624,36.22276],[127.42783,36.22183],[127.42771,36.22131],[127.42826,36.21941],[127.42753,36.2185],[127.42807,36.2174],[127.42811,36.21614],[127.42869,36.21535],[127.42816,36.21475],[127.42817,36.21346],[127.42757,36.21216],[127.42653,36.21134],[127.42819,36.20845],[127.42744,36.20769],[127.4254,36.20685],[127.42449,36.20534],[127.42224,36.20497],[127.42163,36.20422],[127.41982,36.20524],[127.41805,36.20579],[127.41427,36.20845],[127.41224,36.20884],[127.41029,36.21006],[127.41084,36.21044],[127.41165,36.21247],[127.41303,36.21399],[127.413,36.21455],[127.40959,36.2185],[127.40768,36.21863],[127.40677,36.21941],[127.40436,36.22401],[127.4027,36.22887],[127.40292,36.22935],[127.40266,36.23034],[127.40014,36.23041],[127.39938,36.22994],[127.39836,36.23046],[127.39647,36.23051],[127.39537,36.23128],[127.39242,36.23116],[127.39001,36.23152],[127.38978,36.23273],[127.38996,36.23447],[127.39267,36.2366],[127.39227,36.23874],[127.39324,36.23979],[127.38995,36.24299],[127.39028,36.2438],[127.38974,36.2443],[127.38911,36.24581],[127.38944,36.2467],[127.38852,36.24781],[127.38867,36.24979],[127.39026,36.25129],[127.39074,36.2522],[127.39117,36.25376],[127.39088,36.25506],[127.39112,36.25597],[127.3921,36.25635],[127.39212,36.25715],[127.39254,36.25784],[127.3925,36.25906],[127.39176,36.26007],[127.392,36.26058],[127.39183,36.26127],[127.39093,36.26256],[127.38888,36.26358],[127.38651,36.26544],[127.38206,36.26696],[127.3797,36.26851],[127.3785,36.26844],[127.37453,36.26923],[127.37491,36.27154],[127.37341,36.27338],[127.37357,36.27653],[127.37241,36.27741],[127.37222,36.27825],[127.37141,36.27894],[127.37136,36.28001],[127.37252,36.2805],[127.37195,36.2816],[127.37215,36.28196],[127.37186,36.28318],[127.37238,36.28428],[127.37222,36.28511],[127.37271,36.28547],[127.37263,36.28604],[127.37206,36.28634],[127.37207,36.28696],[127.37307,36.28717],[127.37379,36.28831],[127.37514,36.28816],[127.37498,36.28939],[127.37555,36.29029],[127.37794,36.29007],[127.37878,36.29036],[127.38051,36.28993],[127.38328,36.29299],[127.38503,36.29611],[127.38517,36.29701],[127.38382,36.29997],[127.38379,36.30192],[127.38425,36.30345],[127.38802,36.30756],[127.38889,36.30986],[127.38856,36.31268],[127.38768,36.3155],[127.38792,36.31734],[127.39134,36.32282],[127.39353,36.32569],[127.40025,36.33131],[127.39978,36.33169],[127.40408,36.33524],[127.40527,36.34104],[127.4054,36.34296],[127.40503,36.34715]]]}},{"type":"Feature","properties":{"code":"25010","name":"동구"},"geometry":{"type":"Polygon","coordinates":[[[127.51778,36.41936],[127.5197,36.41882],[127.52163,36.41724],[127.52335,36.41868],[127.52471,36.41907],[127.52512,36.41986],[127.52628,36.42026],[127.52734,36.41967],[127.52819,36.41868],[127.52839,36.41795],[127.52992,36.41813],[127.53093,36.41765],[127.53147,36.4164],[127.5352,36.41643],[127.53613,36.41585],[127.53669,36.41624],[127.53823,36.41629],[127.5395,36.41729],[127.54118,36.41742],[127.54189,36.41779],[127.54454,36.41782],[127.5465,36.41683],[127.54527,36.41394],[127.54562,36.41032],[127.54677,36.40816],[127.55421,36.40235],[127.55601,36.39993],[127.55729,36.39603],[127.55811,36.39501],[127.55939,36.39431],[127.55853,36.39297],[127.55633,36.39179],[127.55361,36.39232],[127.55245,36.39306],[127.55072,36.39319],[127.54661,36.39259],[127.54347,36.39142],[127.54079,36.39256],[127.54028,36.39189],[127.53778,36.39182],[127.53624,36.39074],[127.53545,36.38889],[127.53433,36.38761],[127.52988,36.38575],[127.52786,36.38437],[127.52735,36.3846],[127.5268,36.38413],[127.52789,36.38237],[127.52779,36.38148],[127.5273,36.38073],[127.5276,36.38025],[127.52743,36.37328],[127.5279,36.37162],[127.52872,36.37042],[127.52899,36.36636],[127.52749,36.3633],[127.52673,36.36276],[127.52709,36.36086],[127.52521,36.3547],[127.52345,36.35027],[127.5206,36.35056],[127.51801,36.35006],[127.51258,36.34823],[127.5107,36.34518],[127.51119,36.34414],[127.51046,36.34369],[127.51005,36.3428],[127.51038,36.34196],[127.51029,36.341],[127.51145,36.34016],[127.51061,36.33914],[127.5095,36.3388],[127.50896,36.3377],[127.50427,36.33682],[127.50339,36.33577],[127.5033,36.33444],[127.50395,36.3336],[127.50335,36.33036],[127.5041,36.32938],[127.50387,36.32803],[127.50426,36.32736],[127.50418,36.32624],[127.50565,36.32376],[127.50572,36.32282],[127.50473,36.32166],[127.50424,36.3203],[127.50351,36.31991],[127.50231,36.31759],[127.49961,36.31648],[127.50042,36.31601],[127.50143,36.31284],[127.5014,36.31199],[127.49887,36.3102],[127.49856,36.30945],[127.4969,36.30874],[127.49772,36.30813],[127.49807,36.30741],[127.499,36.30694],[127.49936,36.30508],[127.50159,36.30234],[127.50082,36.3011],[127.49838,36.30003],[127.49774,36.29883],[127.49544,36.29708],[127.49415,36.2969],[127.49113,36.29789],[127.49395,36.29686],[127.49314,36.29399],[127.49463,36.29201],[127.4956,36.28962],[127.49749,36.28717],[127.49782,36.28483],[127.49943,36.28373],[127.49949,36.28226],[127.50039,36.27993],[127.5002,36.27831],[127.49925,36.27764],[127.49879,36.27653],[127.49504,36.27372],[127.49454,36.27285],[127.49071,36.2703],[127.49099,36.26828],[127.4923,36.2656],[127.49046,36.2641],[127.48979,36.26225],[127.48964,36.2607],[127.48838,36.25849],[127.48832,36.25629],[127.48944,36.25584],[127.48966,36.25538],[127.49099,36.25543],[127.49195,36.25494],[127.49163,36.25287],[127.49228,36.25176],[127.49229,36.25044],[127.49206,36.24999],[127.49081,36.24978],[127.48969,36.24855],[127.48982,36.24767],[127.49081,36.24582],[127.49066,36.24441],[127.49167,36.24257],[127.49259,36.24219],[127.49406,36.24231],[127.49472,36.24176],[127.49463,36.241],[127.49498,36.24004],[127.49455,36.23945],[127.49549,36.23775],[127.49547,36.23725],[127.49484,36.23638],[127.4948,36.23482],[127.49441,36.23461],[127.49275,36.23474],[127.4921,36.23442],[127.49146,36.23306],[127.49208,36.23082],[127.49085,36.23039],[127.49051,36.22987],[127.48924,36.23019],[127.48801,36.22931],[127.48736,36.22925],[127.48528,36.22759],[127.48359,36.22756],[127.47996,36.22679],[127.48019,36.22549],[127.48002,36.22382],[127.47898,36.22317],[127.47827,36.2232],[127.47654,36.22216],[127.47302,36.22197],[127.47229,36.22092],[127.46965,36.2203],[127.46926,36.21948],[127.46955,36.21816],[127.46943,36.21598],[127.46993,36.21414],[127.47116,36.21311],[127.47136,36.21255],[127.47068,36.21184],[127.46601,36.21107],[127.46583,36.21076],[127.46225,36.20997],[127.46202,36.20838],[127.46119,36.20735],[127.46123,36.20682],[127.45965,36.20576],[127.45743,36.20505],[127.45649,36.2042],[127.45538,36.20382],[127.45562,36.20291],[127.45804,36.20157],[127.45862,36.20079],[127.45786,36.19792],[127.45693,36.19788],[127.45552,36.19723],[127.45406,36.19638],[127.45393,36.19574],[127.45256,36.19581],[127.45184,36.19466],[127.451,36.19435],[127.45053,36.19332],[127.44747,36.19257],[127.44494,36.1911],[127.4432,36.19151],[127.44264,36.19388],[127.44012,36.19429],[127.43907,36.19533],[127.4358,36.19532],[127.43562,36.19667],[127.43465,36.19837],[127.43335,36.19926],[127.43304,36.20109],[127.4314,36.20239],[127.43013,36.20238],[127.42858,36.20309],[127.42598,36.2032],[127.42518,36.20389],[127.42449,36.20534],[127.4254,36.20685],[127.42744,36.20769],[127.42819,36.20845],[127.42653,36.21134],[127.42757,36.21216],[127.42817,36.21346],[127.42816,36.21475],[127.42869,36.21535],[127.42811,36.21614],[127.42807,36.2174],[127.42753,36.2185],[127.42826,36.21941],[127.42771,36.22131],[127.42783,36.22183],[127.42604,36.2231],[127.426,36.2248],[127.42677,36.22598],[127.42975,36.22623],[127.43318,36.22436],[127.43525,36.22449],[127.43626,36.22492],[127.43657,36.22638],[127.4379,36.22714],[127.43978,36.22931],[127.43966,36.2311],[127.43936,36.23155],[127.43968,36.23363],[127.44264,36.23476],[127.44383,36.23465],[127.44424,36.23518],[127.44521,36.23553],[127.44464,36.23599],[127.44428,36.23717],[127.44465,36.23834],[127.44421,36.24021],[127.44431,36.24149],[127.44248,36.24188],[127.44132,36.24268],[127.44009,36.2444],[127.43963,36.24599],[127.43744,36.24703],[127.43693,36.24803],[127.43691,36.24837],[127.43884,36.24999],[127.43693,36.25013],[127.43566,36.25114],[127.42925,36.25165],[127.43232,36.25439],[127.43177,36.25799],[127.44076,36.26511],[127.44125,36.26698],[127.43907,36.27081],[127.43882,36.27188],[127.43587,36.27251],[127.43427,36.2759],[127.43738,36.2784],[127.43725,36.2792],[127.43488,36.28],[127.43467,36.28046],[127.43292,36.28183],[127.43274,36.28715],[127.43316,36.28857],[127.43479,36.28814],[127.43748,36.28981],[127.43984,36.28977],[127.44101,36.29114],[127.44283,36.29236],[127.44322,36.29357],[127.44366,36.29381],[127.44434,36.29294],[127.44533,36.29348],[127.44698,36.29283],[127.4487,36.29392],[127.44936,36.293],[127.44895,36.29104],[127.44976,36.29098],[127.45077,36.2919],[127.45503,36.29039],[127.45829,36.28991],[127.45996,36.29109],[127.4593,36.29159],[127.45877,36.29533],[127.45831,36.29605],[127.45798,36.29774],[127.45298,36.30198],[127.44876,36.30756],[127.44699,36.30838],[127.44412,36.30836],[127.44253,36.30977],[127.44157,36.31153],[127.44011,36.31556],[127.43875,36.31765],[127.43117,36.32718],[127.42551,36.33175],[127.42341,36.33435],[127.41816,36.33661],[127.41602,36.33854],[127.4149,36.34076],[127.41974,36.34174],[127.42283,36.34152],[127.42045,36.34328],[127.42171,36.34536],[127.42362,36.34565],[127.42602,36.34549],[127.427,36.34586],[127.42812,36.34782],[127.42946,36.34905],[127.42938,36.34959],[127.43005,36.34965],[127.42964,36.35252],[127.43124,36.35266],[127.43122,36.35383],[127.43289,36.35389],[127.43281,36.35611],[127.43468,36.35612],[127.43676,36.35752],[127.4378,36.35785],[127.44083,36.35679],[127.4414,36.35564],[127.44117,36.35416],[127.44203,36.35337],[127.44211,36.35255],[127.44179,36.35213],[127.44361,36.35063],[127.44353,36.34943],[127.44729,36.34785],[127.44819,36.34943],[127.44764,36.34928],[127.44803,36.35068],[127.44877,36.35043],[127.44912,36.35106],[127.45084,36.35043],[127.45126,36.35113],[127.45664,36.35154],[127.45595,36.35036],[127.45819,36.35],[127.46068,36.35005],[127.46094,36.34908],[127.46447,36.34844],[127.46529,36.34777],[127.46604,36.34782],[127.46726,36.34861],[127.46683,36.35016],[127.4669,36.3522],[127.4682,36.35511],[127.46803,36.35755],[127.46586,36.35837],[127.46487,36.36118],[127.46442,36.36143],[127.46339,36.36324],[127.46305,36.36453],[127.46241,36.36495],[127.46238,36.36558],[127.46178,36.36609],[127.46061,36.36626],[127.45937,36.3694],[127.45821,36.37063],[127.45797,36.37163],[127.45654,36.37294],[127.45643,36.37404],[127.45506,36.37459],[127.45381,36.37645],[127.45344,36.37798],[127.45526,36.38064],[127.45526,36.38201],[127.45682,36.38405],[127.45701,36.38543],[127.45736,36.38577],[127.45608,36.38713],[127.4564,36.38762],[127.45632,36.38884],[127.45664,36.3897],[127.45584,36.39133],[127.4558,36.3927],[127.45634,36.39293],[127.45724,36.39426],[127.45765,36.39519],[127.45742,36.3962],[127.45819,36.39749],[127.45827,36.39828],[127.45951,36.40004],[127.46326,36.40168],[127.46524,36.4037],[127.4662,36.40395],[127.46859,36.40548],[127.46941,36.40709],[127.47048,36.40743],[127.47495,36.41281],[127.47994,36.41934],[127.48345,36.42491],[127.48333,36.42637],[127.48394,36.42757],[127.48617,36.43056],[127.48841,36.43],[127.49135,36.42977],[127.49985,36.41602],[127.5047,36.40527],[127.50626,36.40413],[127.51122,36.40226],[127.51218,36.40018],[127.51667,36.41463],[127.51778,36.41936]]]}}]}